CCSDS_OMM_VERS = 2.0
CREATION_DATE  = 
ORIGINATOR     = 

OBJECT_NAME    = SL-4 R/B
OBJECT_ID      = 2014-021B
CENTER_NAME    = EARTH
REF_FRAME      = TEME
TIME_SYSTEM    = UTC
MEAN_ELEMENT_THEORY = SGP/SGP4

EPOCH          = 2026-02-25T03:51:46.353024
MEAN_MOTION    = 15.38703128
ECCENTRICITY   = .009848
INCLINATION    = 51.6071
RA_OF_ASC_NODE = 38.3777
ARG_OF_PERICENTER = 57.3095
MEAN_ANOMALY   = 303.7340

EPHEMERIS_TYPE = 0
CLASSIFICATION_TYPE = U
NORAD_CAT_ID   = 39679
ELEMENT_SET_NO = 999
REV_AT_EPOCH   = 65434
BSTAR          = .32169E-3
MEAN_MOTION_DOT = .1436E-3
MEAN_MOTION_DDOT = 0

CCSDS_OMM_VERS = 2.0
CREATION_DATE  = 
ORIGINATOR     = 

OBJECT_NAME    = ALOS-2
OBJECT_ID      = 2014-029A
CENTER_NAME    = EARTH
REF_FRAME      = TEME
TIME_SYSTEM    = UTC
MEAN_ELEMENT_THEORY = SGP/SGP4

EPOCH          = 2026-02-25T04:57:47.704032
MEAN_MOTION    = 14.79485670
ECCENTRICITY   = .0001617
INCLINATION    = 97.9195
RA_OF_ASC_NODE = 154.9838
ARG_OF_PERICENTER = 99.2793
MEAN_ANOMALY   = 260.8602

EPHEMERIS_TYPE = 0
CLASSIFICATION_TYPE = U
NORAD_CAT_ID   = 39766
ELEMENT_SET_NO = 999
REV_AT_EPOCH   = 63502
BSTAR          = .20171E-3
MEAN_MOTION_DOT = .1456E-4
MEAN_MOTION_DDOT = 0

CCSDS_OMM_VERS = 2.0
CREATION_DATE  = 
ORIGINATOR     = 

OBJECT_NAME    = YAOGAN-29
OBJECT_ID      = 2015-069A
CENTER_NAME    = EARTH
REF_FRAME      = TEME
TIME_SYSTEM    = UTC
MEAN_ELEMENT_THEORY = SGP/SGP4

EPOCH          = 2026-02-25T04:15:03.116160
MEAN_MOTION    = 14.82981383
ECCENTRICITY   = .0002558
INCLINATION    = 98.0163
RA_OF_ASC_NODE = 84.5725
ARG_OF_PERICENTER = 57.9314
MEAN_ANOMALY   = 302.2147

EPHEMERIS_TYPE = 0
CLASSIFICATION_TYPE = U
NORAD_CAT_ID   = 41038
ELEMENT_SET_NO = 999
REV_AT_EPOCH   = 55402
BSTAR          = .12308E-3
MEAN_MOTION_DOT = .945E-5
MEAN_MOTION_DDOT = 0

CCSDS_OMM_VERS = 2.0
CREATION_DATE  = 
ORIGINATOR     = 

OBJECT_NAME    = ASTRO-H (HITOMI)
OBJECT_ID      = 2016-012A
CENTER_NAME    = EARTH
REF_FRAME      = TEME
TIME_SYSTEM    = UTC
MEAN_ELEMENT_THEORY = SGP/SGP4

EPOCH          = 2026-02-25T03:21:58.894272
MEAN_MOTION    = 15.09900103
ECCENTRICITY   = .000995
INCLINATION    = 30.9996
RA_OF_ASC_NODE = 77.5243
ARG_OF_PERICENTER = 206.6515
MEAN_ANOMALY   = 153.3612

EPHEMERIS_TYPE = 0
CLASSIFICATION_TYPE = U
NORAD_CAT_ID   = 41337
ELEMENT_SET_NO = 999
REV_AT_EPOCH   = 55033
BSTAR          = .1696E-3
MEAN_MOTION_DOT = .2914E-4
MEAN_MOTION_DDOT = 0

CCSDS_OMM_VERS = 2.0
CREATION_DATE  = 
ORIGINATOR     = 

OBJECT_NAME    = HXMT (HUIYAN)
OBJECT_ID      = 2017-034A
CENTER_NAME    = EARTH
REF_FRAME      = TEME
TIME_SYSTEM    = UTC
MEAN_ELEMENT_THEORY = SGP/SGP4

EPOCH          = 2026-02-25T04:54:51.327936
MEAN_MOTION    = 15.17281474
ECCENTRICITY   = .003133
INCLINATION    = 43.0141
RA_OF_ASC_NODE = 86.0737
ARG_OF_PERICENTER = 157.8467
MEAN_ANOMALY   = 202.3742

EPHEMERIS_TYPE = 0
CLASSIFICATION_TYPE = U
NORAD_CAT_ID   = 42758
ELEMENT_SET_NO = 999
REV_AT_EPOCH   = 48064
BSTAR          = .23223E-3
MEAN_MOTION_DOT = .4528E-4
MEAN_MOTION_DDOT = 0

CCSDS_OMM_VERS = 2.0
CREATION_DATE  = 
ORIGINATOR     = 

OBJECT_NAME    = CZ-2C R/B
OBJECT_ID      = 2018-054D
CENTER_NAME    = EARTH
REF_FRAME      = TEME
TIME_SYSTEM    = UTC
MEAN_ELEMENT_THEORY = SGP/SGP4

EPOCH          = 2026-02-25T01:23:29.190336
MEAN_MOTION    = 16.17631785
ECCENTRICITY   = .0010794
INCLINATION    = 35.1256
RA_OF_ASC_NODE = 26.6868
ARG_OF_PERICENTER = 196.7989
MEAN_ANOMALY   = 163.2400

EPHEMERIS_TYPE = 0
CLASSIFICATION_TYPE = U
NORAD_CAT_ID   = 43521
ELEMENT_SET_NO = 999
REV_AT_EPOCH   = 42687
BSTAR          = .73459E-3
MEAN_MOTION_DOT = .1242254E-1
MEAN_MOTION_DDOT = .11328E-2

CCSDS_OMM_VERS = 2.0
CREATION_DATE  = 
ORIGINATOR     = 

OBJECT_NAME    = SAOCOM 1A
OBJECT_ID      = 2018-076A
CENTER_NAME    = EARTH
REF_FRAME      = TEME
TIME_SYSTEM    = UTC
MEAN_ELEMENT_THEORY = SGP/SGP4

EPOCH          = 2026-02-25T04:53:07.995264
MEAN_MOTION    = 14.82152308
ECCENTRICITY   = .0001288
INCLINATION    = 97.8885
RA_OF_ASC_NODE = 244.5522
ARG_OF_PERICENTER = 81.1250
MEAN_ANOMALY   = 279.0109

EPHEMERIS_TYPE = 0
CLASSIFICATION_TYPE = U
NORAD_CAT_ID   = 43641
ELEMENT_SET_NO = 999
REV_AT_EPOCH   = 39951
BSTAR          = .63467E-4
MEAN_MOTION_DOT = .453E-5
MEAN_MOTION_DDOT = 0

CCSDS_OMM_VERS = 2.0
CREATION_DATE  = 
ORIGINATOR     = 

OBJECT_NAME    = H-2A R/B
OBJECT_ID      = 2018-084L
CENTER_NAME    = EARTH
REF_FRAME      = TEME
TIME_SYSTEM    = UTC
MEAN_ELEMENT_THEORY = SGP/SGP4

EPOCH          = 2026-02-25T03:15:54.773568
MEAN_MOTION    = 15.40740070
ECCENTRICITY   = .0026178
INCLINATION    = 98.8751
RA_OF_ASC_NODE = 270.8460
ARG_OF_PERICENTER = 67.6247
MEAN_ANOMALY   = 292.7765

EPHEMERIS_TYPE = 0
CLASSIFICATION_TYPE = U
NORAD_CAT_ID   = 43682
ELEMENT_SET_NO = 999
REV_AT_EPOCH   = 40384
BSTAR          = .41953E-3
MEAN_MOTION_DOT = .17265E-3
MEAN_MOTION_DDOT = 0

CCSDS_OMM_VERS = 2.0
CREATION_DATE  = 
ORIGINATOR     = 

OBJECT_NAME    = SAOCOM 1B
OBJECT_ID      = 2020-059A
CENTER_NAME    = EARTH
REF_FRAME      = TEME
TIME_SYSTEM    = UTC
MEAN_ELEMENT_THEORY = SGP/SGP4

EPOCH          = 2026-02-25T04:00:54.104832
MEAN_MOTION    = 14.82157570
ECCENTRICITY   = .0001481
INCLINATION    = 97.8885
RA_OF_ASC_NODE = 243.6145
ARG_OF_PERICENTER = 82.2638
MEAN_ANOMALY   = 277.8743

EPHEMERIS_TYPE = 0
CLASSIFICATION_TYPE = U
NORAD_CAT_ID   = 46265
ELEMENT_SET_NO = 999
REV_AT_EPOCH   = 29689
BSTAR          = .74947E-4
MEAN_MOTION_DOT = .544E-5
MEAN_MOTION_DDOT = 0

CCSDS_OMM_VERS = 2.0
CREATION_DATE  = 
ORIGINATOR     = 

OBJECT_NAME    = CSS (TIANHE)
OBJECT_ID      = 2021-035A
CENTER_NAME    = EARTH
REF_FRAME      = TEME
TIME_SYSTEM    = UTC
MEAN_ELEMENT_THEORY = SGP/SGP4

EPOCH          = 2026-02-25T02:33:37.468224
MEAN_MOTION    = 15.60088863
ECCENTRICITY   = .0005593
INCLINATION    = 41.4666
RA_OF_ASC_NODE = 284.6914
ARG_OF_PERICENTER = 191.4381
MEAN_ANOMALY   = 168.6331

EPHEMERIS_TYPE = 0
CLASSIFICATION_TYPE = U
NORAD_CAT_ID   = 48274
ELEMENT_SET_NO = 999
REV_AT_EPOCH   = 27564
BSTAR          = .16634E-3
MEAN_MOTION_DOT = .13576E-3
MEAN_MOTION_DDOT = 0

CCSDS_OMM_VERS = 2.0
CREATION_DATE  = 
ORIGINATOR     = 

OBJECT_NAME    = COSMOS 2550
OBJECT_ID      = 2021-056A
CENTER_NAME    = EARTH
REF_FRAME      = TEME
TIME_SYSTEM    = UTC
MEAN_ELEMENT_THEORY = SGP/SGP4

EPOCH          = 2026-02-25T04:38:03.911712
MEAN_MOTION    = 15.33832122
ECCENTRICITY   = .0008262
INCLINATION    = 67.1417
RA_OF_ASC_NODE = 78.7324
ARG_OF_PERICENTER = 269.5796
MEAN_ANOMALY   = 90.4412

EPHEMERIS_TYPE = 0
CLASSIFICATION_TYPE = U
NORAD_CAT_ID   = 48865
ELEMENT_SET_NO = 999
REV_AT_EPOCH   = 26154
BSTAR          = -.89665E-7
MEAN_MOTION_DOT = -.195E-5
MEAN_MOTION_DDOT = 0

CCSDS_OMM_VERS = 2.0
CREATION_DATE  = 
ORIGINATOR     = 

OBJECT_NAME    = CZ-2C R/B
OBJECT_ID      = 2022-058K
CENTER_NAME    = EARTH
REF_FRAME      = TEME
TIME_SYSTEM    = UTC
MEAN_ELEMENT_THEORY = SGP/SGP4

EPOCH          = 2026-02-25T03:56:32.607456
MEAN_MOTION    = 15.53283064
ECCENTRICITY   = .0042081
INCLINATION    = 50.1898
RA_OF_ASC_NODE = 22.6720
ARG_OF_PERICENTER = 147.4109
MEAN_ANOMALY   = 212.9471

EPHEMERIS_TYPE = 0
CLASSIFICATION_TYPE = U
NORAD_CAT_ID   = 52794
ELEMENT_SET_NO = 999
REV_AT_EPOCH   = 20818
BSTAR          = .45431E-3
MEAN_MOTION_DOT = .2995E-3
MEAN_MOTION_DDOT = 0

