1 39679U 14021B   26056.16095316  .00014360  00000-0  32169-3 0  9990
2 39679  51.6071  38.3777 0098480  57.3095 303.7340 15.38703128654349
1 39766U 14029A   26056.20680213  .00001456  00000-0  20171-3 0  9998
2 39766  97.9195 154.9838 0001617  99.2793 260.8602 14.79485670635026
1 41038U 15069A   26056.17711940  .00000945  00000-0  12308-3 0  9991
2 41038  98.0163  84.5725 0002558  57.9314 302.2147 14.82981383554027
1 41337U 16012A   26056.14026498  .00002914  00000-0  16960-3 0  9992
2 41337  30.9996  77.5243 0009950 206.6515 153.3612 15.09900103550337
1 42758U 17034A   26056.20476074  .00004528  00000-0  23223-3 0  9994
2 42758  43.0141  86.0737 0031330 157.8467 202.3742 15.17281474480642
1 43521U 18054D   26056.05797674  .01242254  11328-2  73459-3 0  9995
2 43521  35.1256  26.6868 0010794 196.7989 163.2400 16.17631785426873
1 43641U 18076A   26056.20356476  .00000453  00000-0  63467-4 0  9994
2 43641  97.8885 244.5522 0001288  81.1250 279.0109 14.82152308399514
1 43682U 18084L   26056.13605062  .00017265  00000-0  41953-3 0  9992
2 43682  98.8751 270.8460 0026178  67.6247 292.7765 15.40740070403841
1 46265U 20059A   26056.16729288  .00000544  00000-0  74947-4 0  9999
2 46265  97.8885 243.6145 0001481  82.2638 277.8743 14.82157570296890
1 48274U 21035A   26056.10668366  .00013576  00000-0  16634-3 0  9996
2 48274  41.4666 284.6914 0005593 191.4381 168.6331 15.60088863275644
1 48865U 21056A   26056.19310083 -.00000195  00000-0 -89665-7 0  9997
2 48865  67.1417  78.7324 0008262 269.5796  90.4412 15.33832122261540
1 52794U 22058K   26056.16426629  .00029950  00000-0  45431-3 0  9994
2 52794  50.1898  22.6720 0042081 147.4109 212.9471 15.53283064208182
